ORBCOMM FM115           
1 41186U 15081H   25344.21674191  .00001452  00000+0  31500-3 0  9997
2 41186  46.9990 282.1296 0000560 209.9844 150.1012 14.62913443533543
ORBCOMM FM108           
1 41187U 15081J   25344.45219687  .00001706  00000+0  39965-3 0  9994
2 41187  47.0061 354.3291 0002061  20.5060 339.5909 14.58546987532522
ORBCOMM FM117           
1 41188U 15081K   25344.41808052  .00001681  00000+0  39419-3 0  9997
2 41188  47.0022 353.1901 0002257  32.4624 327.6400 14.58572599532566
ORBCOMM FM116           
1 41189U 15081L   25344.53538325  .00001603  00000+0  37765-3 0  9990
2 41189  47.0025  82.4053 0002543 257.7313 102.3288 14.58564712531395
