<?xml version="1.0" encoding="UTF-8"?>
<ndm xmlns:xsi="http://www.w3.org/2001/XMLSchema-instance" xsi:noNamespaceSchemaLocation="https://sanaregistry.org/r/ndmxml_unqualified/ndmxml-2.0.0-master-2.0.xsd">
<omm id="CCSDS_OMM_VERS" version="2.0">
<header><CREATION_DATE/><ORIGINATOR/></header><body><segment><metadata><OBJECT_NAME>ORBCOMM FM115</OBJECT_NAME><OBJECT_ID>2015-081H</OBJECT_ID><CENTER_NAME>EARTH</CENTER_NAME><REF_FRAME>TEME</REF_FRAME><TIME_SYSTEM>UTC</TIME_SYSTEM><MEAN_ELEMENT_THEORY>SGP4</MEAN_ELEMENT_THEORY></metadata><data><meanElements><EPOCH>2025-12-10T05:12:06.501024</EPOCH><MEAN_MOTION>14.62913443</MEAN_MOTION><ECCENTRICITY>.000056</ECCENTRICITY><INCLINATION>46.9990</INCLINATION><RA_OF_ASC_NODE>282.1296</RA_OF_ASC_NODE><ARG_OF_PERICENTER>209.9844</ARG_OF_PERICENTER><MEAN_ANOMALY>150.1012</MEAN_ANOMALY></meanElements><tleParameters><EPHEMERIS_TYPE>0</EPHEMERIS_TYPE><CLASSIFICATION_TYPE>U</CLASSIFICATION_TYPE><NORAD_CAT_ID>41186</NORAD_CAT_ID><ELEMENT_SET_NO>999</ELEMENT_SET_NO><REV_AT_EPOCH>53354</REV_AT_EPOCH><BSTAR>.315E-3</BSTAR><MEAN_MOTION_DOT>.1452E-4</MEAN_MOTION_DOT><MEAN_MOTION_DDOT>0</MEAN_MOTION_DDOT></tleParameters></data></segment></body></omm>
<omm id="CCSDS_OMM_VERS" version="2.0">
<header><CREATION_DATE/><ORIGINATOR/></header><body><segment><metadata><OBJECT_NAME>ORBCOMM FM108</OBJECT_NAME><OBJECT_ID>2015-081J</OBJECT_ID><CENTER_NAME>EARTH</CENTER_NAME><REF_FRAME>TEME</REF_FRAME><TIME_SYSTEM>UTC</TIME_SYSTEM><MEAN_ELEMENT_THEORY>SGP4</MEAN_ELEMENT_THEORY></metadata><data><meanElements><EPOCH>2025-12-10T10:51:09.809568</EPOCH><MEAN_MOTION>14.58546987</MEAN_MOTION><ECCENTRICITY>.00020612</ECCENTRICITY><INCLINATION>47.0061</INCLINATION><RA_OF_ASC_NODE>354.3291</RA_OF_ASC_NODE><ARG_OF_PERICENTER>20.5060</ARG_OF_PERICENTER><MEAN_ANOMALY>339.5909</MEAN_ANOMALY></meanElements><tleParameters><EPHEMERIS_TYPE>0</EPHEMERIS_TYPE><CLASSIFICATION_TYPE>U</CLASSIFICATION_TYPE><NORAD_CAT_ID>41187</NORAD_CAT_ID><ELEMENT_SET_NO>999</ELEMENT_SET_NO><REV_AT_EPOCH>53252</REV_AT_EPOCH><BSTAR>.39965041E-3</BSTAR><MEAN_MOTION_DOT>.1706E-4</MEAN_MOTION_DOT><MEAN_MOTION_DDOT>0</MEAN_MOTION_DDOT></tleParameters></data></segment></body></omm>
<omm id="CCSDS_OMM_VERS" version="2.0">
<header><CREATION_DATE/><ORIGINATOR/></header><body><segment><metadata><OBJECT_NAME>ORBCOMM FM117</OBJECT_NAME><OBJECT_ID>2015-081K</OBJECT_ID><CENTER_NAME>EARTH</CENTER_NAME><REF_FRAME>TEME</REF_FRAME><TIME_SYSTEM>UTC</TIME_SYSTEM><MEAN_ELEMENT_THEORY>SGP4</MEAN_ELEMENT_THEORY></metadata><data><meanElements><EPOCH>2025-12-10T10:02:02.156928</EPOCH><MEAN_MOTION>14.58572599</MEAN_MOTION><ECCENTRICITY>.00022578</ECCENTRICITY><INCLINATION>47.0022</INCLINATION><RA_OF_ASC_NODE>353.1901</RA_OF_ASC_NODE><ARG_OF_PERICENTER>32.4624</ARG_OF_PERICENTER><MEAN_ANOMALY>327.6400</MEAN_ANOMALY></meanElements><tleParameters><EPHEMERIS_TYPE>0</EPHEMERIS_TYPE><CLASSIFICATION_TYPE>U</CLASSIFICATION_TYPE><NORAD_CAT_ID>41188</NORAD_CAT_ID><ELEMENT_SET_NO>999</ELEMENT_SET_NO><REV_AT_EPOCH>53256</REV_AT_EPOCH><BSTAR>.39418521E-3</BSTAR><MEAN_MOTION_DOT>.1681E-4</MEAN_MOTION_DOT><MEAN_MOTION_DDOT>0</MEAN_MOTION_DDOT></tleParameters></data></segment></body></omm>
<omm id="CCSDS_OMM_VERS" version="2.0">
<header><CREATION_DATE/><ORIGINATOR/></header><body><segment><metadata><OBJECT_NAME>ORBCOMM FM116</OBJECT_NAME><OBJECT_ID>2015-081L</OBJECT_ID><CENTER_NAME>EARTH</CENTER_NAME><REF_FRAME>TEME</REF_FRAME><TIME_SYSTEM>UTC</TIME_SYSTEM><MEAN_ELEMENT_THEORY>SGP4</MEAN_ELEMENT_THEORY></metadata><data><meanElements><EPOCH>2025-12-10T12:50:57.112800</EPOCH><MEAN_MOTION>14.58564712</MEAN_MOTION><ECCENTRICITY>.00025435</ECCENTRICITY><INCLINATION>47.0025</INCLINATION><RA_OF_ASC_NODE>82.4053</RA_OF_ASC_NODE><ARG_OF_PERICENTER>257.7313</ARG_OF_PERICENTER><MEAN_ANOMALY>102.3288</MEAN_ANOMALY></meanElements><tleParameters><EPHEMERIS_TYPE>0</EPHEMERIS_TYPE><CLASSIFICATION_TYPE>U</CLASSIFICATION_TYPE><NORAD_CAT_ID>41189</NORAD_CAT_ID><ELEMENT_SET_NO>999</ELEMENT_SET_NO><REV_AT_EPOCH>53139</REV_AT_EPOCH><BSTAR>.37764564E-3</BSTAR><MEAN_MOTION_DOT>.1603E-4</MEAN_MOTION_DOT><MEAN_MOTION_DDOT>0</MEAN_MOTION_DDOT></tleParameters></data></segment></body></omm>
</ndm>
